{"fetched_at":"2026-03-29T02:12:04Z","count":15717,"tles":[{"name":"STARLINK-36320","line1":"1 68090U 26042X   26086.15385821  .00375248  00000+0  23254-2 0  9998","line2":"2 68090  53.1593 107.3571 0002763 139.4736 220.6491 15.75432358  4849","category":"Starlink"}]}